{
    "week": 296,
    "satellites": [
        {
            "Name": "BEIDOU-2 IGSO-1 (C06)",
            "Line1": "1 36828U 10036A   24343.40510005 -.00000041  00000+0  00000+0 0  9992",
            "Line2": "2 36828  54.2603 167.9864 0043077 205.5942 317.1579  1.00279941 52528",
            "SatelliteNumber": "36828",
            "Classification": "U",
            "LaunchYear": "10",
            "LaunchNumber": "036",
            "PieceOfLaunch": "A",
            "EpochYear": "24",
            "EpochDay": 343.40510005,
            "FirstDerivativeMeanMotion": -4.1e-07,
            "SecondDerivativeMeanMotion": "00000+0",
            "BSTAR": "00000+0",
            "SetNumber": "999",
            "Inclination": 54.2603,
            "RAAN": 167.9864,
            "Eccentricity": 0.0043077,
            "ArgumentOfPerigee": 205.5942,
            "MeanAnomaly": 317.1579,
            "MeanMotion": 1.00279941,
            "RevolutionNumber": "5252"
        },
        {
            "Name": "BEIDOU-2 G4 (C04)",
            "Line1": "1 37210U 10057A   24343.83824622 -.00000096  00000+0  00000+0 0  9991",
            "Line2": "2 37210   2.2692  70.1952 0009606 183.6853 285.9990  1.00271387 51721",
            "SatelliteNumber": "37210",
            "Classification": "U",
            "LaunchYear": "10",
            "LaunchNumber": "057",
            "PieceOfLaunch": "A",
            "EpochYear": "24",
            "EpochDay": 343.83824622,
            "FirstDerivativeMeanMotion": -9.6e-07,
            "SecondDerivativeMeanMotion": "00000+0",
            "BSTAR": "00000+0",
            "SetNumber": "999",
            "Inclination": 2.2692,
            "RAAN": 70.1952,
            "Eccentricity": 0.0009606,
            "ArgumentOfPerigee": 183.6853,
            "MeanAnomaly": 285.999,
            "MeanMotion": 1.00271387,
            "RevolutionNumber": "5172"
        },
        {
            "Name": "BEIDOU-2 IGSO-2 (C07)",
            "Line1": "1 37256U 10068A   24343.73938097 -.00000214  00000+0  00000+0 0  9996",
            "Line2": "2 37256  48.5777 278.6895 0040959 217.1120 313.8727  1.00297522 51217",
            "SatelliteNumber": "37256",
            "Classification": "U",
            "LaunchYear": "10",
            "LaunchNumber": "068",
            "PieceOfLaunch": "A",
            "EpochYear": "24",
            "EpochDay": 343.73938097,
            "FirstDerivativeMeanMotion": -2.14e-06,
            "SecondDerivativeMeanMotion": "00000+0",
            "BSTAR": "00000+0",
            "SetNumber": "999",
            "Inclination": 48.5777,
            "RAAN": 278.6895,
            "Eccentricity": 0.0040959,
            "ArgumentOfPerigee": 217.112,
            "MeanAnomaly": 313.8727,
            "MeanMotion": 1.00297522,
            "RevolutionNumber": "5121"
        },
        {
            "Name": "BEIDOU-2 IGSO-3 (C08)",
            "Line1": "1 37384U 11013A   24343.73675483 -.00000192  00000+0  00000+0 0  9991",
            "Line2": "2 37384  61.6070  45.4343 0031261 182.0401 222.7432  1.00264521 50096",
            "SatelliteNumber": "37384",
            "Classification": "U",
            "LaunchYear": "11",
            "LaunchNumber": "013",
            "PieceOfLaunch": "A",
            "EpochYear": "24",
            "EpochDay": 343.73675483,
            "FirstDerivativeMeanMotion": -1.92e-06,
            "SecondDerivativeMeanMotion": "00000+0",
            "BSTAR": "00000+0",
            "SetNumber": "999",
            "Inclination": 61.607,
            "RAAN": 45.4343,
            "Eccentricity": 0.0031261,
            "ArgumentOfPerigee": 182.0401,
            "MeanAnomaly": 222.7432,
            "MeanMotion": 1.00264521,
            "RevolutionNumber": "5009"
        },
        {
            "Name": "BEIDOU-2 IGSO-4 (C09)",
            "Line1": "1 37763U 11038A   24343.37874706  .00000075  00000+0  00000+0 0  9997",
            "Line2": "2 37763  54.5651 170.6374 0130293 228.3990 271.2589  1.00270910 49077",
            "SatelliteNumber": "37763",
            "Classification": "U",
            "LaunchYear": "11",
            "LaunchNumber": "038",
            "PieceOfLaunch": "A",
            "EpochYear": "24",
            "EpochDay": 343.37874706,
            "FirstDerivativeMeanMotion": 7.5e-07,
            "SecondDerivativeMeanMotion": "00000+0",
            "BSTAR": "00000+0",
            "SetNumber": "999",
            "Inclination": 54.5651,
            "RAAN": 170.6374,
            "Eccentricity": 0.0130293,
            "ArgumentOfPerigee": 228.399,
            "MeanAnomaly": 271.2589,
            "MeanMotion": 1.0027091,
            "RevolutionNumber": "4907"
        },
        {
            "Name": "BEIDOU-2 IGSO-5 (C10)",
            "Line1": "1 37948U 11073A   24343.68389376 -.00000177  00000+0  00000+0 0  9993",
            "Line2": "2 37948  48.6962 278.3877 0102679 221.1951 278.2952  1.00292508 47560",
            "SatelliteNumber": "37948",
            "Classification": "U",
            "LaunchYear": "11",
            "LaunchNumber": "073",
            "PieceOfLaunch": "A",
            "EpochYear": "24",
            "EpochDay": 343.68389376,
            "FirstDerivativeMeanMotion": -1.77e-06,
            "SecondDerivativeMeanMotion": "00000+0",
            "BSTAR": "00000+0",
            "SetNumber": "999",
            "Inclination": 48.6962,
            "RAAN": 278.3877,
            "Eccentricity": 0.0102679,
            "ArgumentOfPerigee": 221.1951,
            "MeanAnomaly": 278.2952,
            "MeanMotion": 1.00292508,
            "RevolutionNumber": "4756"
        },
        {
            "Name": "BEIDOU-2 G5 (C05)",
            "Line1": "1 38091U 12008A   24344.06577087  .00000073  00000+0  00000+0 0  9997",
            "Line2": "2 38091   2.1901  71.0007 0011759 225.1478 224.5344  1.00271765 46916",
            "SatelliteNumber": "38091",
            "Classification": "U",
            "LaunchYear": "12",
            "LaunchNumber": "008",
            "PieceOfLaunch": "A",
            "EpochYear": "24",
            "EpochDay": 344.06577087,
            "FirstDerivativeMeanMotion": 7.3e-07,
            "SecondDerivativeMeanMotion": "00000+0",
            "BSTAR": "00000+0",
            "SetNumber": "999",
            "Inclination": 2.1901,
            "RAAN": 71.0007,
            "Eccentricity": 0.0011759,
            "ArgumentOfPerigee": 225.1478,
            "MeanAnomaly": 224.5344,
            "MeanMotion": 1.00271765,
            "RevolutionNumber": "4691"
        },
        {
            "Name": "BEIDOU-2 M3 (C11)",
            "Line1": "1 38250U 12018A   24343.44209446 -.00000052  00000+0  00000+0 0  9995",
            "Line2": "2 38250  56.2157 323.5320 0025316 268.3406  91.3739  1.86233469 85940",
            "SatelliteNumber": "38250",
            "Classification": "U",
            "LaunchYear": "12",
            "LaunchNumber": "018",
            "PieceOfLaunch": "A",
            "EpochYear": "24",
            "EpochDay": 343.44209446,
            "FirstDerivativeMeanMotion": -5.2e-07,
            "SecondDerivativeMeanMotion": "00000+0",
            "BSTAR": "00000+0",
            "SetNumber": "999",
            "Inclination": 56.2157,
            "RAAN": 323.532,
            "Eccentricity": 0.0025316,
            "ArgumentOfPerigee": 268.3406,
            "MeanAnomaly": 91.3739,
            "MeanMotion": 1.86233469,
            "RevolutionNumber": "8594"
        },
        {
            "Name": "BEIDOU-2 M4 (C12)",
            "Line1": "1 38251U 12018B   24343.37268799 -.00000052  00000+0  00000+0 0  9994",
            "Line2": "2 38251  56.1209 322.7926 0016230 271.4252  88.3930  1.86231909 85597",
            "SatelliteNumber": "38251",
            "Classification": "U",
            "LaunchYear": "12",
            "LaunchNumber": "018",
            "PieceOfLaunch": "B",
            "EpochYear": "24",
            "EpochDay": 343.37268799,
            "FirstDerivativeMeanMotion": -5.2e-07,
            "SecondDerivativeMeanMotion": "00000+0",
            "BSTAR": "00000+0",
            "SetNumber": "999",
            "Inclination": 56.1209,
            "RAAN": 322.7926,
            "Eccentricity": 0.001623,
            "ArgumentOfPerigee": 271.4252,
            "MeanAnomaly": 88.393,
            "MeanMotion": 1.86231909,
            "RevolutionNumber": "8559"
        },
        {
            "Name": "BEIDOU-2 M6 (C14)",
            "Line1": "1 38775U 12050B   24343.61936154 -.00000014  00000+0  00000+0 0  9993",
            "Line2": "2 38775  56.0577  81.3409 0010978 338.9948  20.9657  1.86230818 82967",
            "SatelliteNumber": "38775",
            "Classification": "U",
            "LaunchYear": "12",
            "LaunchNumber": "050",
            "PieceOfLaunch": "B",
            "EpochYear": "24",
            "EpochDay": 343.61936154,
            "FirstDerivativeMeanMotion": -1.4e-07,
            "SecondDerivativeMeanMotion": "00000+0",
            "BSTAR": "00000+0",
            "SetNumber": "999",
            "Inclination": 56.0577,
            "RAAN": 81.3409,
            "Eccentricity": 0.0010978,
            "ArgumentOfPerigee": 338.9948,
            "MeanAnomaly": 20.9657,
            "MeanMotion": 1.86230818,
            "RevolutionNumber": "8296"
        }
    ]
}